{"type": "FeatureCollection", "features": [ {"type": "Feature", "properties": {"norad_id": 35060, "name": "COSMOS 2251 DEB", "group": "cosmos-2251-debris", "lat": -36.30264698806421, "lon": 55.161638187040566, "alt_km": 758.9339382827338, "timestamp": "2025-12-24T05:51:20.005361+00:00", "meta": {"OBJECT_NAME": "COSMOS 2251 DEB", "OBJECT_ID": "1993-036AHP", "EPOCH": "2025-12-17T09:37:48.798336", "MEAN_MOTION": 14.41611034, "ECCENTRICITY": 0.00186104, "INCLINATION": 74.0362, "RA_OF_ASC_NODE": 235.6937, "ARG_OF_PERICENTER": 321.6138, "MEAN_ANOMALY": 38.3692, "EPHEMERIS_TYPE": 0, "CLASSIFICATION_TYPE": "U", "NORAD_CAT_ID": 35060, "ELEMENT_SET_NO": 999, "REV_AT_EPOCH": 87309, "BSTAR": 0.00026105938, "MEAN_MOTION_DOT": 8.25e-06, "MEAN_MOTION_DDOT": 0}, "tle": {"line1": "1 35060U 93036AHP 25351.40125924  .00000825  00000+0  26106-3 0  9990", "line2": "2 35060  74.0362 235.6937 0018610 321.6138  38.3692 14.41611034873096"}}, "geometry": {"type": "Point", "coordinates": [55.161638187040566, -36.30264698806421]}}, {"type": "Feature", "properties": {"norad_id": 35061, "name": "COSMOS 2251 DEB", "group": "cosmos-2251-debris", "lat": 65.11273601865234, "lon": 65.43672901589798, "alt_km": 655.1680780635115, "timestamp": "2025-12-24T05:51:20.005372+00:00", "meta": {"OBJECT_NAME": "COSMOS 2251 DEB", "OBJECT_ID": "1993-036AHQ", "EPOCH": "2025-12-23T13:00:21.862944", "MEAN_MOTION": 14.67913326, "ECCENTRICITY": 0.00396373, "INCLINATION": 74.0464, "RA_OF_ASC_NODE": 284.8618, "ARG_OF_PERICENTER": 32.7091, "MEAN_ANOMALY": 327.652, "EPHEMERIS_TYPE": 0, "CLASSIFICATION_TYPE": "U", "NORAD_CAT_ID": 35061, "ELEMENT_SET_NO": 999, "REV_AT_EPOCH": 88733, "BSTAR": 0.00077438177, "MEAN_MOTION_DOT": 4.453e-05, "MEAN_MOTION_DDOT": 0}, "tle": {"line1": "1 35061U 93036AHQ 25357.54191971  .00004453  00000+0  77438-3 0  9992", "line2": "2 35061  74.0464 284.8618 0039637  32.7091 327.6520 14.67913326887335"}}, "geometry": {"type": "Point", "coordinates": [65.43672901589798, 65.11273601865234]}}, {"type": "Feature", "properties": {"norad_id": 35062, "name": "COSMOS 2251 DEB", "group": "cosmos-2251-debris", "lat": 65.75218593463603, "lon": -146.70313546932672, "alt_km": 737.7035930022839, "timestamp": "2025-12-24T05:51:20.005382+00:00", "meta": {"OBJECT_NAME": "COSMOS 2251 DEB", "OBJECT_ID": "1993-036AHR", "EPOCH": "2025-12-20T22:03:28.302048", "MEAN_MOTION": 14.22993492, "ECCENTRICITY": 0.0126453, "INCLINATION": 74.0793, "RA_OF_ASC_NODE": 78.5797, "ARG_OF_PERICENTER": 75.845, "MEAN_ANOMALY": 285.6708, "EPHEMERIS_TYPE": 0, "CLASSIFICATION_TYPE": "U", "NORAD_CAT_ID": 35062, "ELEMENT_SET_NO": 999, "REV_AT_EPOCH": 85615, "BSTAR": 0.0011493, "MEAN_MOTION_DOT": 2.786e-05, "MEAN_MOTION_DDOT": 0}, "tle": {"line1": "1 35062U 93036AHR 25354.91907757  .00002786  00000+0  11493-2 0  9993", "line2": "2 35062  74.0793  78.5797 0126453  75.8450 285.6708 14.22993492856157"}}, "geometry": {"type": "Point", "coordinates": [-146.70313546932672, 65.75218593463603]}}, {"type": "Feature", "properties": {"norad_id": 35065, "name": "COSMOS 2251 DEB", "group": "cosmos-2251-debris", "lat": 16.097406286066633, "lon": 177.6070154801099, "alt_km": 737.5636016617027, "timestamp": "2025-12-24T05:51:20.005392+00:00", "meta": {"OBJECT_NAME": "COSMOS 2251 DEB", "OBJECT_ID": "1993-036AHU", "EPOCH": "2025-12-19T06:12:25.656192", "MEAN_MOTION": 14.4574331, "ECCENTRICITY": 0.0020018, "INCLINATION": 74.0185, "RA_OF_ASC_NODE": 182.1668, "ARG_OF_PERICENTER": 306.5523, "MEAN_ANOMALY": 53.3791, "EPHEMERIS_TYPE": 0, "CLASSIFICATION_TYPE": "U", "NORAD_CAT_ID": 35065, "ELEMENT_SET_NO": 999, "REV_AT_EPOCH": 68445, "BSTAR": 0.00028971, "MEAN_MOTION_DOT": 1.002e-05, "MEAN_MOTION_DDOT": 0}, "tle": {"line1": "1 35065U 93036AHU 25353.25863028  .00001002  00000+0  28971-3 0  9994", "line2": "2 35065  74.0185 182.1668 0020018 306.5523  53.3791 14.45743310684450"}}, "geometry": {"type": "Point", "coordinates": [177.6070154801099, 16.097406286066633]}}, {"type": "Feature", "properties": {"norad_id": 35071, "name": "COSMOS 2251 DEB", "group": "cosmos-2251-debris", "lat": 64.89932643208633, "lon": -68.1966723066756, "alt_km": 529.8271560565308, "timestamp": "2025-12-24T05:51:20.005401+00:00", "meta": {"OBJECT_NAME": "COSMOS 2251 DEB", "OBJECT_ID": "1993-036AJA", "EPOCH": "2025-12-23T03:49:38.502624", "MEAN_MOTION": 15.03640344, "ECCENTRICITY": 0.00685241, "INCLINATION": 73.9316, "RA_OF_ASC_NODE": 152.0069, "ARG_OF_PERICENTER": 45.3397, "MEAN_ANOMALY": 315.3347, "EPHEMERIS_TYPE": 0, "CLASSIFICATION_TYPE": "U", "NORAD_CAT_ID": 35071, "ELEMENT_SET_NO": 999, "REV_AT_EPOCH": 67693, "BSTAR": 0.00067222607, "MEAN_MOTION_DOT": 9.658e-05, "MEAN_MOTION_DDOT": 0}, "tle": {"line1": "1 35071U 93036AJA 25357.15947341  .00009658  00000+0  67223-3 0  9993", "line2": "2 35071  73.9316 152.0069 0068524  45.3397 315.3347 15.03640344676933"}}, "geometry": {"type": "Point", "coordinates": [-68.1966723066756, 64.89932643208633]}}, {"type": "Feature", "properties": {"norad_id": 35073, "name": "COSMOS 2251 DEB", "group": "cosmos-2251-debris", "lat": 63.417666971980395, "lon": 92.12327438140574, "alt_km": 552.333162342883, "timestamp": "2025-12-24T05:51:20.005411+00:00", "meta": {"OBJECT_NAME": "COSMOS 2251 DEB", "OBJECT_ID": "1993-036AJC", "EPOCH": "2025-12-23T13:22:12.377280", "MEAN_MOTION": 15.01382354, "ECCENTRICITY": 0.00112511, "INCLINATION": 74.0027, "RA_OF_ASC_NODE": 308.5087, "ARG_OF_PERICENTER": 50.3654, "MEAN_ANOMALY": 309.8525, "EPHEMERIS_TYPE": 0, "CLASSIFICATION_TYPE": "U", "NORAD_CAT_ID": 35073, "ELEMENT_SET_NO": 999, "REV_AT_EPOCH": 67641, "BSTAR": 0.0032564954, "MEAN_MOTION_DOT": 0.00042271, "MEAN_MOTION_DDOT": 0}, "tle": {"line1": "1 35073U 93036AJC 25357.55708770  .00042271  00000+0  32565-2 0  9998", "line2": "2 35073  74.0027 308.5087 0011251  50.3654 309.8525 15.01382354676412"}}, "geometry": {"type": "Point", "coordinates": [92.12327438140574, 63.417666971980395]}}, {"type": "Feature", "properties": {"norad_id": 35284, "name": "COSMOS 2251 DEB", "group": "cosmos-2251-debris", "lat": 52.7963760307683, "lon": 41.10982842562805, "alt_km": 770.6180023862089, "timestamp": "2025-12-24T05:51:20.005422+00:00", "meta": {"OBJECT_NAME": "COSMOS 2251 DEB", "OBJECT_ID": "1993-036AJN", "EPOCH": "2025-12-22T23:19:24.555936", "MEAN_MOTION": 14.38328459, "ECCENTRICITY": 0.00171491, "INCLINATION": 74.0486, "RA_OF_ASC_NODE": 245.5844, "ARG_OF_PERICENTER": 320.5278, "MEAN_ANOMALY": 58.8111, "EPHEMERIS_TYPE": 0, "CLASSIFICATION_TYPE": "U", "NORAD_CAT_ID": 35284, "ELEMENT_SET_NO": 999, "REV_AT_EPOCH": 65673, "BSTAR": 0.00014924776, "MEAN_MOTION_DOT": 4.29e-06, "MEAN_MOTION_DDOT": 0}, "tle": {"line1": "1 35284U 93036AJN 25356.97181199  .00000429  00000+0  14925-3 0  9997", "line2": "2 35284  74.0486 245.5844 0017149 320.5278  58.8111 14.38328459656732"}}, "geometry": {"type": "Point", "coordinates": [41.10982842562805, 52.7963760307683]}}, {"type": "Feature", "properties": {"norad_id": 35287, "name": "COSMOS 2251 DEB", "group": "cosmos-2251-debris", "lat": -37.39809448077046, "lon": 87.64312058044999, "alt_km": 784.7704815332472, "timestamp": "2025-12-24T05:51:20.005432+00:00", "meta": {"OBJECT_NAME": "COSMOS 2251 DEB", "OBJECT_ID": "1993-036AJR", "EPOCH": "2025-12-23T04:28:36.192000", "MEAN_MOTION": 14.36384771, "ECCENTRICITY": 0.00180246, "INCLINATION": 74.0301, "RA_OF_ASC_NODE": 256.9396, "ARG_OF_PERICENTER": 351.3601, "MEAN_ANOMALY": 162.0144, "EPHEMERIS_TYPE": 0, "CLASSIFICATION_TYPE": "U", "NORAD_CAT_ID": 35287, "ELEMENT_SET_NO": 999, "REV_AT_EPOCH": 87042, "BSTAR": 0.00012299523, "MEAN_MOTION_DOT": 3.34e-06, "MEAN_MOTION_DDOT": 0}, "tle": {"line1": "1 35287U 93036AJR 25357.18653000  .00000334  00000+0  12300-3 0  9999", "line2": "2 35287  74.0301 256.9396 0018024 351.3601 162.0144 14.36384771870429"}}, "geometry": {"type": "Point", "coordinates": [87.64312058044999, -37.39809448077046]}}, {"type": "Feature", "properties": {"norad_id": 35288, "name": "COSMOS 2251 DEB", "group": "cosmos-2251-debris", "lat": 42.8138862416674, "lon": 157.43921171973108, "alt_km": 671.1308566316548, "timestamp": "2025-12-24T05:51:20.005441+00:00", "meta": {"OBJECT_NAME": "COSMOS 2251 DEB", "OBJECT_ID": "1993-036AJS", "EPOCH": "2025-12-23T06:18:10.717920", "MEAN_MOTION": 14.65565205, "ECCENTRICITY": 0.0039069, "INCLINATION": 73.9499, "RA_OF_ASC_NODE": 354.8064, "ARG_OF_PERICENTER": 226.8245, "MEAN_ANOMALY": 132.9657, "EPHEMERIS_TYPE": 0, "CLASSIFICATION_TYPE": "U", "NORAD_CAT_ID": 35288, "ELEMENT_SET_NO": 999, "REV_AT_EPOCH": 88032, "BSTAR": 0.0011220049, "MEAN_MOTION_DOT": 6.131e-05, "MEAN_MOTION_DDOT": 0}, "tle": {"line1": "1 35288U 93036AJS 25357.26262405  .00006131  00000+0  11220-2 0  9994", "line2": "2 35288  73.9499 354.8064 0039069 226.8245 132.9657 14.65565205880328"}}, "geometry": {"type": "Point", "coordinates": [157.43921171973108, 42.8138862416674]}}, {"type": "Feature", "properties": {"norad_id": 35290, "name": "COSMOS 2251 DEB", "group": "cosmos-2251-debris", "lat": -42.230752512365875, "lon": 21.619053562727686, "alt_km": 634.0785453543622, "timestamp": "2025-12-24T05:51:20.005452+00:00", "meta": {"OBJECT_NAME": "COSMOS 2251 DEB", "OBJECT_ID": "1993-036AJU", "EPOCH": "2025-12-23T20:19:33.967488", "MEAN_MOTION": 14.80655268, "ECCENTRICITY": 0.00012769, "INCLINATION": 74.005, "RA_OF_ASC_NODE": 37.4954, "ARG_OF_PERICENTER": 186.2028, "MEAN_ANOMALY": 173.9132, "EPHEMERIS_TYPE": 0, "CLASSIFICATION_TYPE": "U", "NORAD_CAT_ID": 35290, "ELEMENT_SET_NO": 999, "REV_AT_EPOCH": 88122, "BSTAR": 0.0016632757, "MEAN_MOTION_DOT": 0.00012772, "MEAN_MOTION_DDOT": 0}, "tle": {"line1": "1 35290U 93036AJU 25357.84692092  .00012772  00000+0  16633-2 0  9991", "line2": "2 35290  74.0050  37.4954 0001276 186.2028 173.9132 14.80655268881224"}}, "geometry": {"type": "Point", "coordinates": [21.619053562727686, -42.230752512365875]}}]}